NORAD_CAT_ID,OBJECT_NAME,OBJECT_TYPE,EPOCH,MEAN_MOTION,ECCENTRICITY,INCLINATION,RA_OF_ASC_NODE,ARG_OF_PERICENTER,MEAN_ANOMALY,BSTAR,MEAN_MOTION_DOT,MEAN_MOTION_DDOT,TLE_LINE0,TLE_LINE1,TLE_LINE2,SEMIMAJOR_AXIS,PERIOD,APOGEE,PERIGEE,DECAYED
54811.0,STARLINK-5424,PAYLOAD,2024-05-25 04:45:08,15.08830241,0.0001467,53.2185,77.7993,66.1677,293.9469,7.0872e-05,8.4e-06,0.0,0 STARLINK-5424,1 54811U 22175BF  24146.19801380  .00000840  00000-0  70872-4 0  9993,2 54811  53.2185  77.7993 0001467  66.1677 293.9469 15.08830241 79389,6917.91,95.438,540.79,538.76,0.0
54811.0,STARLINK-5424,PAYLOAD,2024-05-25 12:42:03,15.08842352,0.0001189,53.218,76.3155,85.7611,274.3516,8.8395e-05,1.119e-05,0.0,0 STARLINK-5424,1 54811U 22175BF  24146.52920445  .00001119  00000-0  88395-4 0  9993,2 54811  53.2180  76.3155 0001189  85.7611 274.3516 15.08842352 79433,6917.873,95.437,540.561,538.916,0.0
54811.0,STARLINK-5424,PAYLOAD,2024-05-26 04:35:54,15.08844049,0.0001425,53.2184,73.336,94.7654,265.3501,-3.8541e-05,-9.01e-06,0.0,0 STARLINK-5424,1 54811U 22175BF  24147.19160686 -.00000901  00000-0 -38541-4 0  9998,2 54811  53.2184  73.3360 0001425  94.7654 265.3501 15.08844049 81692,6917.868,95.437,540.719,538.747,0.0
54811.0,STARLINK-5424,PAYLOAD,2024-05-27 04:26:41,15.08838039,0.0001362,53.2178,68.8819,89.9167,270.1981,8.2502e-05,1.025e-05,0.0,0 STARLINK-5424,1 54811U 22175BF  24148.18520822  .00001025  00000-0  82502-4 0  9992,2 54811  53.2178  68.8819 0001362  89.9167 270.1981 15.08838039 79682,6917.886,95.438,540.694,538.809,0.0
54811.0,STARLINK-5424,PAYLOAD,2024-05-28 04:17:30,15.08828403,0.0001331,53.2178,64.4218,111.7793,248.3341,-5.3246e-05,-1.135e-05,0.0,0 STARLINK-5424,1 54811U 22175BF  24149.17882248 -.00001135  00000-0 -53246-4 0  9992,2 54811  53.2178  64.4218 0001331 111.7793 248.3341 15.08828403 79830,6917.916,95.438,540.702,538.86,0.0
54811.0,STARLINK-5424,PAYLOAD,2024-05-28 21:46:44,15.08836044,0.0001226,53.2172,61.1542,85.3011,274.8121,2.6789e-05,1.38e-06,0.0,0 STARLINK-5424,1 54811U 22175BF  24149.90745919  .00000138  00000-0  26789-4 0  9998,2 54811  53.2172  61.1542 0001226  85.3011 274.8121 15.08836044 82104,6917.892,95.438,540.606,538.909,0.0
54811.0,STARLINK-5424,PAYLOAD,2024-05-29 00:57:29,15.08850372,0.0001285,53.2175,60.5552,101.5119,258.6018,0.00013647,1.885e-05,0.0,0 STARLINK-5424,1 54811U 22175BF  24150.03992549  .00001885  00000-0  13647-3 0  9995,2 54811  53.2175  60.5552 0001285 101.5119 258.6018 15.08850372 79961,6917.849,95.437,540.603,538.825,0.0
54811.0,STARLINK-5424,PAYLOAD,2024-05-29 21:37:30,15.08838263,0.000144,53.2177,56.6855,95.0729,265.0427,0.0001785,2.554e-05,0.0,0 STARLINK-5424,1 54811U 22175BF  24150.90105127  .00002554  00000-0  17850-3 0  9993,2 54811  53.2177  56.6855 0001440  95.0729 265.0427 15.08838263 80099,6917.886,95.438,540.747,538.755,0.0
54811.0,STARLINK-5424,PAYLOAD,2024-05-30 03:59:03,15.08837882,0.0001428,53.218,55.4986,90.9965,269.1191,0.00014604,2.037e-05,0.0,0 STARLINK-5424,1 54811U 22175BF  24151.16601355  .00002037  00000-0  14604-3 0  9996,2 54811  53.2180  55.4986 0001428  90.9965 269.1191 15.08837882 82290,6917.887,95.438,540.74,538.764,0.0
54811.0,STARLINK-5424,PAYLOAD,2024-05-30 21:28:17,15.08846873,0.0001436,53.2181,52.227,95.8006,264.315,-1.9239e-05,-5.94e-06,0.0,0 STARLINK-5424,1 54811U 22175BF  24151.89465274 -.00000594  00000-0 -19239-4 0  9992,2 54811  53.2181  52.2270 0001436  95.8006 264.3150 15.08846873 82406,6917.859,95.437,540.718,538.731,0.0
54811.0,STARLINK-5424,PAYLOAD,2024-05-31 02:14:27,15.08845469,0.0001433,53.2182,51.3353,97.3671,262.7484,-3.1254e-05,-7.85e-06,0.0,0 STARLINK-5424,1 54811U 22175BF  24152.09337298 -.00000785  00000-0 -31254-4 0  9992,2 54811  53.2182  51.3353 0001433  97.3671 262.7484 15.08845469 80276,6917.864,95.437,540.72,538.737,0.0
54811.0,STARLINK-5424,PAYLOAD,2024-05-31 21:19:05,15.08829937,0.0001593,53.2187,47.7728,92.1332,267.9843,-2.7501e-05,-7.26e-06,0.0,0 STARLINK-5424,1 54811U 22175BF  24152.88826147 -.00000726  00000-0 -27501-4 0  9990,2 54811  53.2187  47.7728 0001593  92.1332 267.9843 15.08829937 80391,6917.911,95.438,540.878,538.674,0.0
54811.0,STARLINK-5424,PAYLOAD,2024-05-31 22:54:28,15.08832161,0.0001489,53.2188,47.4733,87.7063,272.41,-5.4182e-05,-1.15e-05,0.0,0 STARLINK-5424,1 54811U 22175BF  24152.95450080 -.00001150  00000-0 -54182-4 0  9994,2 54811  53.2188  47.4733 0001489  87.7063 272.4100 15.08832161 82561,6917.904,95.438,540.799,538.739,0.0
54811.0,STARLINK-5424,PAYLOAD,2024-06-01 10:02:09,15.08848658,0.0001487,53.219,45.3906,78.4966,281.6193,2.7116e-05,1.44e-06,0.0,0 STARLINK-5424,1 54811U 22175BF  24153.41816831  .00000144  00000-0  27116-4 0  9993,2 54811  53.2190  45.3906 0001487  78.4966 281.6193 15.08848658 80470,6917.854,95.437,540.748,538.69,0.0
54811.0,STARLINK-5424,PAYLOAD,2024-06-01 21:09:52,15.08836802,0.0001688,53.2194,43.3071,84.0834,276.035,0.00011191,1.493e-05,0.0,0 STARLINK-5424,1 54811U 22175BF  24153.88185483  .00001493  00000-0  11191-3 0  9999,2 54811  53.2194  43.3071 0001688  84.0834 276.0350 15.08836802 80544,6917.89,95.438,540.923,538.587,0.0
54811.0,STARLINK-5424,PAYLOAD,2024-06-02 09:52:56,15.0885061,0.0001994,53.2187,40.9318,81.8037,278.3181,9.4868e-05,1.222e-05,0.0,0 STARLINK-5424,1 54811U 22175BF  24154.41176741  .00001222  00000-0  94868-4 0  9999,2 54811  53.2187  40.9318 0001994  81.8037 278.3181 15.08850610 80622,6917.848,95.437,541.092,538.334,0.0
54811.0,STARLINK-5424,PAYLOAD,2024-06-02 16:14:30,15.08827803,0.000152,53.22,39.7409,88.6511,271.4655,7.4228e-05,8.93e-06,0.0,0 STARLINK-5424,1 54811U 22175BF  24154.67674137  .00000893  00000-0  74228-4 0  9990,2 54811  53.2200  39.7409 0001520  88.6511 271.4655 15.08827803 80664,6917.918,95.438,540.834,538.731,0.0
54811.0,STARLINK-5424,PAYLOAD,2024-06-02 22:36:02,15.08832958,0.0001427,53.2195,38.5508,90.6964,269.4192,0.0001116,1.488e-05,0.0,0 STARLINK-5424,1 54811U 22175BF  24154.94169786  .00001488  00000-0  11160-3 0  9995,2 54811  53.2195  38.5508 0001427  90.6964 269.4192 15.08832958 82869,6917.902,95.438,540.754,538.78,0.0
54811.0,STARLINK-5424,PAYLOAD,2024-06-03 01:46:48,15.08840141,0.0001464,53.2188,37.9568,88.5845,271.5315,5.0604e-05,5.17e-06,0.0,0 STARLINK-5424,1 54811U 22175BF  24155.07417527  .00000517  00000-0  50604-4 0  9998,2 54811  53.2188  37.9568 0001464  88.5845 271.5315 15.08840141 80722,6917.88,95.438,540.758,538.732,0.0
54811.0,STARLINK-5424,PAYLOAD,2024-06-03 09:43:44,15.08846113,0.0001476,53.2186,36.4695,90.1939,269.9223,6.5481e-05,7.54e-06,0.0,0 STARLINK-5424,1 54811U 22175BF  24155.40537114  .00000754  00000-0  65481-4 0  9992,2 54811  53.2186  36.4695 0001476  90.1939 269.9223 15.08846113 82930,6917.862,95.437,540.748,538.706,0.0
54811.0,STARLINK-5424,PAYLOAD,2024-06-04 15:56:03,15.08840498,0.0001526,53.2172,30.819,99.7726,260.3438,9.5858e-05,1.238e-05,0.0,0 STARLINK-5424,1 54811U 22175BF  24156.66393242  .00001238  00000-0  95858-4 0  9992,2 54811  53.2172  30.8190 0001526  99.7726 260.3438 15.08840498 80962,6917.879,95.438,540.8,538.688,0.0
54811.0,STARLINK-5424,PAYLOAD,2024-06-04 22:17:36,15.0884417,0.0002369,53.2149,29.629,91.9485,268.1779,0.00012657,1.727e-05,0.0,0 STARLINK-5424,1 54811U 22175BF  24156.92889025  .00001727  00000-0  12657-3 0  9998,2 54811  53.2149  29.6290 0002369  91.9485 268.1779 15.08844170 83165,6917.868,95.437,541.371,538.094,0.0
54811.0,STARLINK-5424,PAYLOAD,2024-06-05 22:08:24,15.088328,0.0001558,53.2167,25.1697,86.084,274.033,-1.8133e-05,-5.77e-06,0.0,0 STARLINK-5424,1 54811U 22175BF  24157.92250137 -.00000577  00000-0 -18133-4 0  9995,2 54811  53.2167  25.1697 0001558  86.0840 274.0330 15.08832800 83319,6917.902,95.438,540.845,538.69,0.0
54811.0,STARLINK-5424,PAYLOAD,2024-06-06 07:40:42,15.0883744,0.0001978,53.2225,23.3874,89.8312,270.2907,9.2189e-06,-1.41e-06,0.0,0 STARLINK-5424,1 54811U 22175BF  24158.31993964 -.00000141  00000-0  92189-5 0  9991,2 54811  53.2225  23.3874 0001978  89.8312 270.2907 15.08837440 83371,6917.888,95.438,541.122,538.385,0.0
54811.0,STARLINK-5424,PAYLOAD,2024-06-07 07:31:29,15.08836717,8.5e-05,53.2241,18.9268,56.3844,303.723,3.5412e-05,2.76e-06,0.0,0 STARLINK-5424,1 54811U 22175BF  24159.31354086  .00000276  00000-0  35412-4 0  9991,2 54811  53.2241  18.9268 0000850  56.3844 303.7230 15.08836717 83527,6917.89,95.438,540.343,539.167,0.0
54811.0,STARLINK-5424,PAYLOAD,2024-06-07 15:28:25,15.08829752,0.0001583,53.2216,17.4399,88.335,271.7824,9.7411e-05,1.262e-05,0.0,0 STARLINK-5424,1 54811U 22175BF  24159.64474500  .00001262  00000-0  97411-4 0  9994,2 54811  53.2216  17.4399 0001583  88.3350 271.7824 15.08829752 81419,6917.912,95.438,540.872,538.682,0.0
54811.0,STARLINK-5424,PAYLOAD,2024-06-07 21:49:58,15.08837605,0.0001733,53.2154,16.2502,94.4279,265.6911,0.00015479,2.176e-05,0.0,0 STARLINK-5424,1 54811U 22175BF  24159.90970123  .00002176  00000-0  15479-3 0  9993,2 54811  53.2154  16.2502 0001733  94.4279 265.6911 15.08837605 83617,6917.888,95.438,540.952,538.554,0.0
54811.0,STARLINK-5424,PAYLOAD,2024-06-07 23:25:21,15.08838402,0.0001769,53.2152,15.9527,93.569,266.5504,0.00015939,2.249e-05,0.0,0 STARLINK-5424,1 54811U 22175BF  24159.97594093  .00002249  00000-0  15939-3 0  9990,2 54811  53.2152  15.9527 0001769  93.5690 266.5504 15.08838402 81469,6917.885,95.438,540.974,538.526,0.0
54811.0,STARLINK-5424,PAYLOAD,2024-06-08 07:22:15,15.08851974,9.79e-05,53.217,14.4642,80.3013,279.8089,8.1846e-05,1.015e-05,0.0,0 STARLINK-5424,1 54811U 22175BF  24160.30712918  .00001015  00000-0  81846-4 0  9998,2 54811  53.2170  14.4642 0000979  80.3013 279.8089 15.08851974 83675,6917.844,95.437,540.386,539.032,0.0
54811.0,STARLINK-5424,PAYLOAD,2024-06-08 21:40:45,15.08824904,0.0001253,53.2183,11.7871,80.4047,279.7087,0.00010363,1.361e-05,0.0,0 STARLINK-5424,1 54811U 22175BF  24160.90330787  .00001361  00000-0  10363-3 0  9993,2 54811  53.2183  11.7871 0001253  80.4047 279.7087 15.08824904 83767,6917.927,95.439,540.658,538.925,0.0
